[{"OBJECT_NAME":"STARLINK-36415","OBJECT_ID":"2026-012AC","EPOCH":"2026-03-09T02:05:18.273120","MEAN_MOTION":15.27547014,"ECCENTRICITY":0.00021174,"INCLINATION":43.0042,"RA_OF_ASC_NODE":317.4482,"ARG_OF_PERICENTER":279.6103,"MEAN_ANOMALY":80.451,"EPHEMERIS_TYPE":0,"CLASSIFICATION_TYPE":"U","NORAD_CAT_ID":67519,"ELEMENT_SET_NO":999,"REV_AT_EPOCH":767,"BSTAR":0.001305131,"MEAN_MOTION_DOT":0.00035791,"MEAN_MOTION_DDOT":0},{"OBJECT_NAME":"CZ-6A DEB","OBJECT_ID":"2022-151ADD","EPOCH":"2026-03-09T18:20:47.462208","MEAN_MOTION":15.20298953,"ECCENTRICITY":0.00285544,"INCLINATION":98.6309,"RA_OF_ASC_NODE":152.6578,"ARG_OF_PERICENTER":173.2603,"MEAN_ANOMALY":186.9019,"EPHEMERIS_TYPE":0,"CLASSIFICATION_TYPE":"U","NORAD_CAT_ID":56285,"ELEMENT_SET_NO":999,"REV_AT_EPOCH":17182,"BSTAR":0.0066325049,"MEAN_MOTION_DOT":0.00148374,"MEAN_MOTION_DDOT":0}]
